CCSDS_OMM_VERS = 2.0
CREATION_DATE  = 
ORIGINATOR     = 

OBJECT_NAME    = ATLAS CENTAUR 2
OBJECT_ID      = 1963-047A
CENTER_NAME    = EARTH
REF_FRAME      = TEME
TIME_SYSTEM    = UTC
MEAN_ELEMENT_THEORY = SGP/SGP4

EPOCH          = 2025-12-25T17:38:10.461120
MEAN_MOTION    = 14.11815140
ECCENTRICITY   = .0548664
INCLINATION    = 30.3526
RA_OF_ASC_NODE = 248.8689
ARG_OF_PERICENTER = 148.6480
MEAN_ANOMALY   = 214.8064

EPHEMERIS_TYPE = 0
CLASSIFICATION_TYPE = U
NORAD_CAT_ID   = 694
ELEMENT_SET_NO = 999
REV_AT_EPOCH   = 12116
BSTAR          = .25693E-3
MEAN_MOTION_DOT = .2193E-4
MEAN_MOTION_DDOT = 0

CCSDS_OMM_VERS = 2.0
CREATION_DATE  = 
ORIGINATOR     = 

OBJECT_NAME    = THOR AGENA D R/B
OBJECT_ID      = 1964-002A
CENTER_NAME    = EARTH
REF_FRAME      = TEME
TIME_SYSTEM    = UTC
MEAN_ELEMENT_THEORY = SGP/SGP4

EPOCH          = 2025-12-25T15:08:38.304096
MEAN_MOTION    = 14.33966960
ECCENTRICITY   = .0033814
INCLINATION    = 99.1220
RA_OF_ASC_NODE = 3.9468
ARG_OF_PERICENTER = 113.3997
MEAN_ANOMALY   = 247.0748

EPHEMERIS_TYPE = 0
CLASSIFICATION_TYPE = U
NORAD_CAT_ID   = 733
ELEMENT_SET_NO = 999
REV_AT_EPOCH   = 22768
BSTAR          = .98598E-4
MEAN_MOTION_DOT = .228E-5
MEAN_MOTION_DDOT = 0

CCSDS_OMM_VERS = 2.0
CREATION_DATE  = 
ORIGINATOR     = 

OBJECT_NAME    = SL-3 R/B
OBJECT_ID      = 1964-053B
CENTER_NAME    = EARTH
REF_FRAME      = TEME
TIME_SYSTEM    = UTC
MEAN_ELEMENT_THEORY = SGP/SGP4

EPOCH          = 2025-12-25T18:44:35.515104
MEAN_MOTION    = 14.61284954
ECCENTRICITY   = .0074974
INCLINATION    = 65.0748
RA_OF_ASC_NODE = 187.9054
ARG_OF_PERICENTER = 316.0531
MEAN_ANOMALY   = 43.4620

EPHEMERIS_TYPE = 0
CLASSIFICATION_TYPE = U
NORAD_CAT_ID   = 877
ELEMENT_SET_NO = 999
REV_AT_EPOCH   = 25599
BSTAR          = .59327E-4
MEAN_MOTION_DOT = .18E-5
MEAN_MOTION_DDOT = 0

CCSDS_OMM_VERS = 2.0
CREATION_DATE  = 
ORIGINATOR     = 

OBJECT_NAME    = SL-8 R/B
OBJECT_ID      = 1967-045B
CENTER_NAME    = EARTH
REF_FRAME      = TEME
TIME_SYSTEM    = UTC
MEAN_ELEMENT_THEORY = SGP/SGP4

EPOCH          = 2025-12-25T19:17:08.741760
MEAN_MOTION    = 14.45550303
ECCENTRICITY   = .0063635
INCLINATION    = 74.0109
RA_OF_ASC_NODE = 126.0689
ARG_OF_PERICENTER = 152.1614
MEAN_ANOMALY   = 208.2974

EPHEMERIS_TYPE = 0
CLASSIFICATION_TYPE = U
NORAD_CAT_ID   = 2802
ELEMENT_SET_NO = 999
REV_AT_EPOCH   = 7834
BSTAR          = .14249E-3
MEAN_MOTION_DOT = .488E-5
MEAN_MOTION_DDOT = 0

CCSDS_OMM_VERS = 2.0
CREATION_DATE  = 
ORIGINATOR     = 

OBJECT_NAME    = SL-8 R/B
OBJECT_ID      = 1968-040B
CENTER_NAME    = EARTH
REF_FRAME      = TEME
TIME_SYSTEM    = UTC
MEAN_ELEMENT_THEORY = SGP/SGP4

EPOCH          = 2025-12-25T18:09:48.568032
MEAN_MOTION    = 15.02614521
ECCENTRICITY   = .0026071
INCLINATION    = 74.0311
RA_OF_ASC_NODE = 104.6909
ARG_OF_PERICENTER = 304.2171
MEAN_ANOMALY   = 55.6547

EPHEMERIS_TYPE = 0
CLASSIFICATION_TYPE = U
NORAD_CAT_ID   = 3230
ELEMENT_SET_NO = 999
REV_AT_EPOCH   = 7890
BSTAR          = .28795E-3
MEAN_MOTION_DOT = .3822E-4
MEAN_MOTION_DDOT = 0

CCSDS_OMM_VERS = 2.0
CREATION_DATE  = 
ORIGINATOR     = 

OBJECT_NAME    = OAO 2
OBJECT_ID      = 1968-110A
CENTER_NAME    = EARTH
REF_FRAME      = TEME
TIME_SYSTEM    = UTC
MEAN_ELEMENT_THEORY = SGP/SGP4

EPOCH          = 2025-12-25T14:52:56.055072
MEAN_MOTION    = 14.47251778
ECCENTRICITY   = .0005858
INCLINATION    = 34.9948
RA_OF_ASC_NODE = 318.7552
ARG_OF_PERICENTER = 317.8916
MEAN_ANOMALY   = 42.1325

EPHEMERIS_TYPE = 0
CLASSIFICATION_TYPE = U
NORAD_CAT_ID   = 3597
ELEMENT_SET_NO = 999
REV_AT_EPOCH   = 836
BSTAR          = .80945E-4
MEAN_MOTION_DOT = .281E-5
MEAN_MOTION_DDOT = 0

CCSDS_OMM_VERS = 2.0
CREATION_DATE  = 
ORIGINATOR     = 

OBJECT_NAME    = ISIS 1
OBJECT_ID      = 1969-009A
CENTER_NAME    = EARTH
REF_FRAME      = TEME
TIME_SYSTEM    = UTC
MEAN_ELEMENT_THEORY = SGP/SGP4

EPOCH          = 2025-12-25T10:50:39.092640
MEAN_MOTION    = 11.30360209
ECCENTRICITY   = .1707086
INCLINATION    = 88.4492
RA_OF_ASC_NODE = 163.4057
ARG_OF_PERICENTER = 239.0071
MEAN_ANOMALY   = 103.2334

EPHEMERIS_TYPE = 0
CLASSIFICATION_TYPE = U
NORAD_CAT_ID   = 3669
ELEMENT_SET_NO = 999
REV_AT_EPOCH   = 34014
BSTAR          = .19216E-3
MEAN_MOTION_DOT = .267E-5
MEAN_MOTION_DDOT = 0

CCSDS_OMM_VERS = 2.0
CREATION_DATE  = 
ORIGINATOR     = 

OBJECT_NAME    = SERT 2
OBJECT_ID      = 1970-009A
CENTER_NAME    = EARTH
REF_FRAME      = TEME
TIME_SYSTEM    = UTC
MEAN_ELEMENT_THEORY = SGP/SGP4

EPOCH          = 2025-12-25T20:08:43.193184
MEAN_MOTION    = 13.58719765
ECCENTRICITY   = .0004986
INCLINATION    = 99.2671
RA_OF_ASC_NODE = 302.0099
ARG_OF_PERICENTER = 3.9350
MEAN_ANOMALY   = 50.5085

EPHEMERIS_TYPE = 0
CLASSIFICATION_TYPE = U
NORAD_CAT_ID   = 4327
ELEMENT_SET_NO = 999
REV_AT_EPOCH   = 76986
BSTAR          = .13735E-3
MEAN_MOTION_DOT = .59E-6
MEAN_MOTION_DDOT = 0

CCSDS_OMM_VERS = 2.0
CREATION_DATE  = 
ORIGINATOR     = 

OBJECT_NAME    = SL-3 R/B
OBJECT_ID      = 1971-028B
CENTER_NAME    = EARTH
REF_FRAME      = TEME
TIME_SYSTEM    = UTC
MEAN_ELEMENT_THEORY = SGP/SGP4

EPOCH          = 2025-12-25T19:18:25.952256
MEAN_MOTION    = 15.55225170
ECCENTRICITY   = .0019082
INCLINATION    = 81.2384
RA_OF_ASC_NODE = 142.8715
ARG_OF_PERICENTER = 193.5940
MEAN_ANOMALY   = 166.4798

EPHEMERIS_TYPE = 0
CLASSIFICATION_TYPE = U
NORAD_CAT_ID   = 5118
ELEMENT_SET_NO = 999
REV_AT_EPOCH   = 97716
BSTAR          = .50638E-3
MEAN_MOTION_DOT = .34624E-3
MEAN_MOTION_DDOT = 0

CCSDS_OMM_VERS = 2.0
CREATION_DATE  = 
ORIGINATOR     = 

OBJECT_NAME    = ASTEX 1
OBJECT_ID      = 1971-089A
CENTER_NAME    = EARTH
REF_FRAME      = TEME
TIME_SYSTEM    = UTC
MEAN_ELEMENT_THEORY = SGP/SGP4

EPOCH          = 2025-12-25T19:27:51.122304
MEAN_MOTION    = 14.50657778
ECCENTRICITY   = .0014677
INCLINATION    = 92.7148
RA_OF_ASC_NODE = 127.8488
ARG_OF_PERICENTER = 342.2691
MEAN_ANOMALY   = 17.8001

EPHEMERIS_TYPE = 0
CLASSIFICATION_TYPE = U
NORAD_CAT_ID   = 5560
ELEMENT_SET_NO = 999
REV_AT_EPOCH   = 85159
BSTAR          = .14704E-3
MEAN_MOTION_DOT = .577E-5
MEAN_MOTION_DDOT = 0

CCSDS_OMM_VERS = 2.0
CREATION_DATE  = 
ORIGINATOR     = 

OBJECT_NAME    = SL-8 R/B
OBJECT_ID      = 1971-119B
CENTER_NAME    = EARTH
REF_FRAME      = TEME
TIME_SYSTEM    = UTC
MEAN_ELEMENT_THEORY = SGP/SGP4

EPOCH          = 2025-12-25T13:49:03.230976
MEAN_MOTION    = 14.36039301
ECCENTRICITY   = .0558346
INCLINATION    = 73.8895
RA_OF_ASC_NODE = 314.0660
ARG_OF_PERICENTER = 295.7559
MEAN_ANOMALY   = 58.6981

EPHEMERIS_TYPE = 0
CLASSIFICATION_TYPE = U
NORAD_CAT_ID   = 5730
ELEMENT_SET_NO = 999
REV_AT_EPOCH   = 64484
BSTAR          = .63455E-3
MEAN_MOTION_DOT = .12212E-3
MEAN_MOTION_DDOT = 0

CCSDS_OMM_VERS = 2.0
CREATION_DATE  = 
ORIGINATOR     = 

OBJECT_NAME    = OAO 3 (COPERNICUS)
OBJECT_ID      = 1972-065A
CENTER_NAME    = EARTH
REF_FRAME      = TEME
TIME_SYSTEM    = UTC
MEAN_ELEMENT_THEORY = SGP/SGP4

EPOCH          = 2025-12-25T02:57:20.482272
MEAN_MOTION    = 14.59916854
ECCENTRICITY   = .00072312
INCLINATION    = 35.0070
RA_OF_ASC_NODE = 2.1243
ARG_OF_PERICENTER = 269.9454
MEAN_ANOMALY   = 145.7378

EPHEMERIS_TYPE = 0
CLASSIFICATION_TYPE = U
NORAD_CAT_ID   = 6153
ELEMENT_SET_NO = 999
REV_AT_EPOCH   = 83529
BSTAR          = .9007641E-4
MEAN_MOTION_DOT = .417E-5
MEAN_MOTION_DDOT = 0

