ATLAS CENTAUR 2         
1 00694U 63047A   25359.73484330  .00002193  00000+0  25693-3 0  9997
2 00694  30.3526 248.8689 0548664 148.6480 214.8064 14.11815140121161
THOR AGENA D R/B        
1 00733U 64002A   25359.63099889  .00000228  00000+0  98598-4 0  9995
2 00733  99.1220   3.9468 0033814 113.3997 247.0748 14.33966960227684
SL-3 R/B                
1 00877U 64053B   25359.78096661  .00000180  00000+0  59327-4 0  9995
2 00877  65.0748 187.9054 0074974 316.0531  43.4620 14.61284954255991
SL-8 R/B                
1 02802U 67045B   25359.80357340  .00000488  00000+0  14249-3 0  9990
2 02802  74.0109 126.0689 0063635 152.1614 208.2974 14.45550303 78344
SL-8 R/B                
1 03230U 68040B   25359.75681213  .00003822  00000+0  28795-3 0  9991
2 03230  74.0311 104.6909 0026071 304.2171  55.6547 15.02614521 78902
OAO 2                   
1 03597U 68110A   25359.62009323  .00000281  00000+0  80945-4 0  9999
2 03597  34.9948 318.7552 0005858 317.8916  42.1325 14.47251778  8365
ISIS 1                  
1 03669U 69009A   25359.45184135  .00000267  00000+0  19216-3 0  9999
2 03669  88.4492 163.4057 1707086 239.0071 103.2334 11.30360209340141
SERT 2                  
1 04327U 70009A   25359.83938881  .00000059  00000+0  13735-3 0  9999
2 04327  99.2671 302.0099 0004986   3.9350  50.5085 13.58719765769863
SL-3 R/B                
1 05118U 71028B   25359.80446704  .00034624  00000+0  50638-3 0  9993
2 05118  81.2384 142.8715 0019082 193.5940 166.4798 15.55225170977166
ASTEX 1                 
1 05560U 71089A   25359.81100836  .00000577  00000+0  14704-3 0  9999
2 05560  92.7148 127.8488 0014677 342.2691  17.8001 14.50657778851594
SL-8 R/B                
1 05730U 71119B   25359.57573184  .00012212  00000+0  63455-3 0  9991
2 05730  73.8895 314.0660 0558346 295.7559  58.6981 14.36039301644843
OAO 3 (COPERNICUS)      
1 06153U 72065A   25359.12315373  .00000417  00000+0  90076-4 0  9991
2 06153  35.0070   2.1243 0007231 269.9454 145.7378 14.59916854835290
